NORAD_CAT_ID,OBJECT_NAME,OBJECT_TYPE,EPOCH,MEAN_MOTION,ECCENTRICITY,INCLINATION,RA_OF_ASC_NODE,ARG_OF_PERICENTER,MEAN_ANOMALY,BSTAR,MEAN_MOTION_DOT,MEAN_MOTION_DDOT,TLE_LINE0,TLE_LINE1,TLE_LINE2,SEMIMAJOR_AXIS,PERIOD,APOGEE,PERIGEE,DECAYED
53777.0,STARLINK-4664,PAYLOAD,2023-12-26 04:50:44,15.0884026,0.0001733,53.2182,285.7542,76.7827,283.3358,7.617e-05,9.24e-06,0.0,0 STARLINK-4664,1 53777U 22111E   23360.20190050  .00000924  00000-0  76170-4 0  9997,2 53777  53.2182 285.7542 0001733  76.7827 283.3358 15.08840260 72247,6917.88,95.438,540.943,538.546,0.0
53777.0,STARLINK-4664,PAYLOAD,2023-12-26 22:19:58,15.088449,0.0001897,53.2184,282.4864,117.9767,242.1417,0.00013972,1.937e-05,0.0,0 STARLINK-4664,1 53777U 22111E   23360.93053747  .00001937  00000-0  13972-3 0  9993,2 53777  53.2184 282.4864 0001897 117.9767 242.1417 15.08844900 72358,6917.865,95.437,541.043,538.418,0.0
53777.0,STARLINK-4664,PAYLOAD,2023-12-27 01:30:44,15.0884727,0.0001767,53.2181,281.8918,92.1409,267.9785,0.00017383,2.48e-05,0.0,0 STARLINK-4664,1 53777U 22111E   23361.06301782  .00002480  00000-0  17383-3 0  9997,2 53777  53.2181 281.8918 0001767  92.1409 267.9785 15.08847270 72379,6917.858,95.437,540.946,538.501,0.0
53777.0,STARLINK-4664,PAYLOAD,2023-12-27 22:10:45,15.08840569,0.0001801,53.2174,278.0262,117.4582,242.6593,9.2463e-05,1.184e-05,0.0,0 STARLINK-4664,1 53777U 22111E   23361.92413972  .00001184  00000-0  92463-4 0  9990,2 53777  53.2174 278.0262 0001801 117.4582 242.6593 15.08840569 72509,6917.879,95.438,540.99,538.498,0.0
53777.0,STARLINK-4664,PAYLOAD,2023-12-27 23:46:09,15.08842639,0.0001257,53.2178,277.7288,48.0102,312.0997,0.00015991,2.258e-05,0.0,0 STARLINK-4664,1 53777U 22111E   23361.99038212  .00002258  00000-0  15991-3 0  9990,2 53777  53.2178 277.7288 0001257  48.0102 312.0997 15.08842639 71700,6917.872,95.437,540.607,538.868,0.0
53777.0,STARLINK-4664,PAYLOAD,2023-12-29 01:12:19,15.08841924,0.0001529,53.2172,272.9734,87.7154,272.4013,7.3885e-05,8.88e-06,0.0,0 STARLINK-4664,1 53777U 22111E   23363.05022097  .00000888  00000-0  73885-4 0  9997,2 53777  53.2172 272.9734 0001529  87.7154 272.4013 15.08841924 71867,6917.875,95.437,540.797,538.682,0.0
53777.0,STARLINK-4664,PAYLOAD,2023-12-29 04:23:05,15.08845704,0.0001401,53.2167,272.3812,95.2105,264.9047,8.0632e-05,9.96e-06,0.0,0 STARLINK-4664,1 53777U 22111E   23363.18269852  .00000996  00000-0  80632-4 0  9991,2 53777  53.2167 272.3812 0001401  95.2105 264.9047 15.08845704 72696,6917.863,95.437,540.697,538.759,0.0
53777.0,STARLINK-4664,PAYLOAD,2023-12-29 21:52:19,15.08841647,0.0001199,53.2167,269.1082,80.3709,279.7418,2.2197e-05,6.5e-07,0.0,0 STARLINK-4664,1 53777U 22111E   23363.91134157  .00000065  00000-0  22197-4 0  9990,2 53777  53.2167 269.1082 0001199  80.3709 279.7418 15.08841647 72809,6917.875,95.437,540.57,538.911,0.0
53777.0,STARLINK-4664,PAYLOAD,2023-12-30 01:03:06,15.08846232,0.0001434,53.2161,268.5172,45.5529,314.558,0.00010539,1.39e-05,0.0,0 STARLINK-4664,1 53777U 22111E   23364.04382097  .00001390  00000-0  10539-3 0  9991,2 53777  53.2161 268.5172 0001434  45.5529 314.5580 15.08846232 72826,6917.861,95.437,540.718,538.734,0.0
53777.0,STARLINK-4664,PAYLOAD,2023-12-30 21:43:07,15.08835924,0.0001428,53.2164,264.6481,94.1876,265.9279,1.8073e-05,0.0,0.0,0 STARLINK-4664,1 53777U 22111E   23364.90494557  .00000000  00000-0  18073-4 0  9990,2 53777  53.2164 264.6481 0001428  94.1876 265.9279 15.08835924 72951,6917.893,95.438,540.746,538.77,0.0
53777.0,STARLINK-4664,PAYLOAD,2023-12-31 02:29:16,15.08838179,0.0001491,53.2161,263.7564,93.6158,266.5005,0.00021454,3.128e-05,0.0,0 STARLINK-4664,1 53777U 22111E   23365.10366484  .00003128  00000-0  21454-3 0  9990,2 53777  53.2161 263.7564 0001491  93.6158 266.5005 15.08838179 72170,6917.886,95.438,540.782,538.719,0.0
53777.0,STARLINK-4664,PAYLOAD,2023-12-31 21:33:54,15.08823731,0.0001719,53.2166,260.192,97.9494,262.1693,0.00041576,6.332e-05,0.0,0 STARLINK-4664,1 53777U 22111E   23365.89855324  .00006332  00000-0  41576-3 0  9999,2 53777  53.2166 260.1920 0001719  97.9494 262.1693 15.08823731 73102,6917.93,95.439,540.984,538.606,0.0
53777.0,STARLINK-4664,PAYLOAD,2024-01-01 16:38:31,15.08845308,0.0001629,53.2171,256.6231,88.259,271.8589,9.7955e-05,1.271e-05,0.0,0 STARLINK-4664,1 53777U 22111E   24001.69342506  .00001271  00000-0  97955-4 0  9998,2 53777  53.2171 256.6231 0001629  88.2590 271.8589 15.08845308 72411,6917.864,95.437,540.856,538.602,0.0
53777.0,STARLINK-4664,PAYLOAD,2024-01-01 21:24:41,15.08847327,0.0001575,53.2168,255.7318,92.1864,267.9309,0.00010674,1.411e-05,0.0,0 STARLINK-4664,1 53777U 22111E   24001.89214244  .00001411  00000-0  10674-3 0  9995,2 53777  53.2168 255.7318 0001575  92.1864 267.9309 15.08847327 73253,6917.858,95.437,540.813,538.633,0.0
53777.0,STARLINK-4664,PAYLOAD,2024-01-02 02:10:50,15.08853598,0.0001608,53.2168,254.8387,88.897,271.2206,0.00015803,2.229e-05,0.0,0 STARLINK-4664,1 53777U 22111E   24002.09085663  .00002229  00000-0  15803-3 0  9996,2 53777  53.2168 254.8387 0001608  88.8970 271.2206 15.08853598 72470,6917.839,95.437,540.816,538.591,0.0
53777.0,STARLINK-4664,PAYLOAD,2024-01-02 16:29:18,15.08842576,0.0001438,53.2156,252.1621,99.5768,260.5386,5.283e-05,5.53e-06,0.0,0 STARLINK-4664,1 53777U 22111E   24002.68702463  .00000553  00000-0  52830-4 0  9995,2 53777  53.2156 252.1621 0001438  99.5768 260.5386 15.08842576 72568,6917.873,95.437,540.732,538.743,0.0
53777.0,STARLINK-4664,PAYLOAD,2024-01-02 21:15:28,15.08842407,0.0001649,53.2156,251.2704,96.1149,264.0031,5.7127e-05,6.21e-06,0.0,0 STARLINK-4664,1 53777U 22111E   24002.88574450  .00000621  00000-0  57127-4 0  9990,2 53777  53.2156 251.2704 0001649  96.1149 264.0031 15.08842407 73403,6917.873,95.437,540.879,538.597,0.0
53777.0,STARLINK-4664,PAYLOAD,2024-01-02 22:50:51,15.08842155,0.0001572,53.2161,250.9733,94.2557,265.8615,5.4352e-05,5.77e-06,0.0,0 STARLINK-4664,1 53777U 22111E   24002.95198463  .00000577  00000-0  54352-4 0  9991,2 53777  53.2161 250.9733 0001572  94.2557 265.8615 15.08842155 73412,6917.874,95.437,540.826,538.651,0.0
53777.0,STARLINK-4664,PAYLOAD,2024-01-03 19:30:52,15.08842266,0.0001564,53.2162,247.1072,100.7196,259.3972,4.6463e-06,-2.14e-06,0.0,0 STARLINK-4664,1 53777U 22111E   24003.81310448 -.00000214  00000-0  46463-5 0  9990,2 53777  53.2162 247.1072 0001564 100.7196 259.3972 15.08842266 72731,6917.873,95.437,540.82,538.657,0.0
53777.0,STARLINK-4664,PAYLOAD,2024-01-03 22:41:38,15.08844591,0.0001377,53.2156,246.5119,97.6059,262.5089,-4.6116e-07,-2.95e-06,0.0,0 STARLINK-4664,1 53777U 22111E   24003.94558267 -.00000295  00000-0 -46116-6 0  9993,2 53777  53.2156 246.5119 0001377  97.6059 262.5089 15.08844591 73563,6917.866,95.437,540.684,538.779,0.0
53777.0,STARLINK-4664,PAYLOAD,2024-01-04 20:57:02,15.08837664,0.0001492,53.2162,242.3501,97.8408,262.2754,5.3795e-05,5.68e-06,0.0,0 STARLINK-4664,1 53777U 22111E   24004.87294600  .00000568  00000-0  53795-4 0  9994,2 53777  53.2162 242.3501 0001492  97.8408 262.2754 15.08837664 72891,6917.888,95.438,540.785,538.72,0.0
53777.0,STARLINK-4664,PAYLOAD,2024-01-04 22:32:25,15.08838416,0.0001504,53.2163,242.0528,98.627,261.4893,5.7441e-05,6.26e-06,0.0,0 STARLINK-4664,1 53777U 22111E   24004.93918539  .00000626  00000-0  57441-4 0  9992,2 53777  53.2163 242.0528 0001504  98.6270 261.4893 15.08838416 73711,6917.885,95.438,540.791,538.71,0.0
53777.0,STARLINK-4664,PAYLOAD,2024-01-05 14:26:17,15.08833341,0.0001475,53.216,239.0779,92.3726,267.7435,3.9404e-05,3.39e-06,0.0,0 STARLINK-4664,1 53777U 22111E   24005.60159118  .00000339  00000-0  39404-4 0  9997,2 53777  53.2160 239.0779 0001475  92.3726 267.7435 15.08833341 73810,6917.901,95.438,540.786,538.745,0.0
53777.0,STARLINK-4664,PAYLOAD,2024-01-05 22:23:13,15.08834783,0.0001446,53.2161,237.5913,95.4588,264.6569,3.9398e-05,3.39e-06,0.0,0 STARLINK-4664,1 53777U 22111E   24005.93279091  .00000339  00000-0  39398-4 0  9998,2 53777  53.2161 237.5913 0001446  95.4588 264.6569 15.08834783 73862,6917.896,95.438,540.762,538.761,0.0
53777.0,STARLINK-4664,PAYLOAD,2024-01-06 01:33:59,15.08835197,0.0001439,53.216,236.9965,94.4371,265.6786,4.0303e-05,3.53e-06,0.0,0 STARLINK-4664,1 53777U 22111E   24006.06527102  .00000353  00000-0  40303-4 0  9996,2 53777  53.2160 236.9965 0001439  94.4371 265.6786 15.08835197 73077,6917.895,95.438,540.756,538.765,0.0
53777.0,STARLINK-4664,PAYLOAD,2024-01-06 22:14:00,15.08836467,0.0001412,53.216,233.1306,97.0586,263.0567,3.1566e-05,2.14e-06,0.0,0 STARLINK-4664,1 53777U 22111E   24006.92639255  .00000214  00000-0  31566-4 0  9991,2 53777  53.2160 233.1306 0001412  97.0586 263.0567 15.08836467 74018,6917.891,95.438,540.733,538.779,0.0
53777.0,STARLINK-4664,PAYLOAD,2024-01-07 18:54:01,15.08839359,0.0001328,53.216,229.265,94.2443,265.8701,7.8033e-05,9.54e-06,0.0,0 STARLINK-4664,1 53777U 22111E   24007.78751172  .00000954  00000-0  78033-4 0  9990,2 53777  53.2160 229.2650 0001328  94.2443 265.8701 15.08839359 73330,6917.882,95.438,540.666,538.829,0.0
53777.0,STARLINK-4664,PAYLOAD,2024-01-07 22:04:47,15.08841058,0.0001319,53.2159,228.6703,89.8575,270.2568,8.9378e-05,1.135e-05,0.0,0 STARLINK-4664,1 53777U 22111E   24007.91999039  .00001135  00000-0  89378-4 0  9997,2 53777  53.2159 228.6703 0001319  89.8575 270.2568 15.08841058 74168,6917.877,95.437,540.655,538.83,0.0
53777.0,STARLINK-4664,PAYLOAD,2024-01-07 23:40:10,15.08842328,0.0001334,53.216,228.3729,93.1243,266.9902,9.9308e-05,1.293e-05,0.0,0 STARLINK-4664,1 53777U 22111E   24007.98622923  .00001293  00000-0  99308-4 0  9998,2 53777  53.2160 228.3729 0001334  93.1243 266.9902 15.08842328 74178,6917.873,95.437,540.661,538.815,0.0
53777.0,STARLINK-4664,PAYLOAD,2024-01-08 21:55:34,15.08840114,0.0001406,53.2163,224.207,87.2403,272.875,6.3768e-05,7.27e-06,0.0,0 STARLINK-4664,1 53777U 22111E   24008.91359275  .00000727  00000-0  63768-4 0  9991,2 53777  53.2163 224.2070 0001406  87.2403 272.8750 15.08840114 74311,6917.88,95.438,540.718,538.772,0.0
